ORBCOMM-X               
1 21576U 91050C   25356.10682876  .00000316  00000+0  10633-3 0  9990
2 21576  98.3215  58.6695 0003268 358.0248   2.0929 14.43442820809224
ORBCOMM FM02            
1 23546U 95017B   25356.26375409  .00011062  00000+0  10210-2 0  9994
2 23546  69.9643 342.7422 0005615 344.7159  15.3827 14.94817024640223
ORBCOMM FM08            
1 25112U 97084A   25356.56533698  .00001104  00000+0  34291-3 0  9992
2 25112  45.0118 183.0587 0006877 125.1970 234.9526 14.46621450468649
ORBCOMM FM10            
1 25113U 97084B   25356.57601069  .00001003  00000+0  31670-3 0  9998
2 25113  45.0134 185.7384 0005188  92.9094 267.2351 14.46365880643781
ORBCOMM FM12            
1 25115U 97084D   25356.57360496  .00001042  00000+0  32914-3 0  9991
2 25115  45.0123 186.4627 0005095  91.7579 268.3856 14.46132989468533
ORBCOMM FM09            
1 25116U 97084E   25356.83111704  .00000921  00000+0  29667-3 0  9993
2 25116  45.0127 186.3658 0006189  81.2205 278.9347 14.45970978468771
